[
    {
        "Altitude(m)": 569029.2997250422,
        "Argument of Periapsis(deg)": 0.026491964442854003,
        "Eccentricity": 0.0,
        "Inclination(deg)": 53.0,
        "Latitude(deg)": -46.07360887097444,
        "Longitude(deg)": 47.89974775456575,
        "Mean Anomaly(deg)": -115.99722852968968,
        "RAAN(deg)": 279.96057347411204,
        "Satellite Name": "Starlink Shell 1 1244",
        "Satellite Number": 1244,
        "Semi-Major Axis(m)": 6931778.249405717,
        "Time(s)": 760
    },
    {
        "Altitude(m)": 569156.3496448746,
        "Argument of Periapsis(deg)": 0.02684054292236524,
        "Eccentricity": 0.0,
        "Inclination(deg)": 53.0,
        "Latitude(deg)": -46.38492097011914,
        "Longitude(deg)": 48.64021057873326,
        "Mean Anomaly(deg)": -115.37039732613289,
        "RAAN(deg)": 279.9600547040346,
        "Satellite Name": "Starlink Shell 1 1244",
        "Satellite Number": 1244,
        "Semi-Major Axis(m)": 6931778.249405717,
        "Time(s)": 770
    },
    {
        "Altitude(m)": 569280.9873574523,
        "Argument of Periapsis(deg)": 0.027189121401876473,
        "Eccentricity": 0.0,
        "Inclination(deg)": 53.0,
        "Latitude(deg)": -46.690808197867455,
        "Longitude(deg)": 49.38951242850293,
        "Mean Anomaly(deg)": -114.74356612257628,
        "RAAN(deg)": 279.9595359339571,
        "Satellite Name": "Starlink Shell 1 1244",
        "Satellite Number": 1244,
        "Semi-Major Axis(m)": 6931778.249405717,
        "Time(s)": 780
    },
    {
        "Altitude(m)": 569403.1635829168,
        "Argument of Periapsis(deg)": 0.02753769988138771,
        "Eccentricity": 0.0,
        "Inclination(deg)": 53.0,
        "Latitude(deg)": -46.991152346033516,
        "Longitude(deg)": 50.147689335595615,
        "Mean Anomaly(deg)": -114.11673491901962,
        "RAAN(deg)": 279.9590171638796,
        "Satellite Name": "Starlink Shell 1 1244",
        "Satellite Number": 1244,
        "Semi-Major Axis(m)": 6931778.249405717,
        "Time(s)": 790
    },
    {
        "Altitude(m)": 569522.8299873015,
        "Argument of Periapsis(deg)": 0.02788627836089895,
        "Eccentricity": 0.0,
        "Inclination(deg)": 53.0,
        "Latitude(deg)": -47.285834110957445,
        "Longitude(deg)": 50.91476806349438,
        "Mean Anomaly(deg)": -113.48990371546273,
        "RAAN(deg)": 279.95849839380213,
        "Satellite Name": "Starlink Shell 1 1244",
        "Satellite Number": 1244,
        "Semi-Major Axis(m)": 6931778.249405717,
        "Time(s)": 800
    },
    {
        "Altitude(m)": 569639.9392036556,
        "Argument of Periapsis(deg)": 0.02823485684041019,
        "Eccentricity": 0.0,
        "Inclination(deg)": 53.0,
        "Latitude(deg)": -47.574733209284894,
        "Longitude(deg)": 51.690766069125104,
        "Mean Anomaly(deg)": -112.8630725119061,
        "RAAN(deg)": 279.9579796237247,
        "Satellite Name": "Starlink Shell 1 1244",
        "Satellite Number": 1244,
        "Semi-Major Axis(m)": 6931778.249405717,
        "Time(s)": 810
    },
    {
        "Altitude(m)": 569754.4448528012,
        "Argument of Periapsis(deg)": 0.028583435319921423,
        "Eccentricity": 0.0,
        "Inclination(deg)": 53.0,
        "Latitude(deg)": -47.85772850410463,
        "Longitude(deg)": 52.47569146007518,
        "Mean Anomaly(deg)": -112.2362413083494,
        "RAAN(deg)": 279.9574608536472,
        "Satellite Name": "Starlink Shell 1 1244",
        "Satellite Number": 1244,
        "Semi-Major Axis(m)": 6931778.249405717,
        "Time(s)": 820
    },
    {
        "Altitude(m)": 569866.3015636038,
        "Argument of Periapsis(deg)": 0.028932013799432665,
        "Eccentricity": 0.0,
        "Inclination(deg)": 53.0,
        "Latitude(deg)": -48.134698141685256,
        "Longitude(deg)": 53.26954143720899,
        "Mean Anomaly(deg)": -111.60941010479264,
        "RAAN(deg)": 279.9569420835697,
        "Satellite Name": "Starlink Shell 1 1244",
        "Satellite Number": 1244,
        "Semi-Major Axis(m)": 6931778.249405717,
        "Time(s)": 830
    },
    {
        "Altitude(m)": 569975.4649928227,
        "Argument of Periapsis(deg)": 0.029280592278943897,
        "Eccentricity": 0.0,
        "Inclination(deg)": 53.0,
        "Latitude(deg)": -48.40551969899874,
        "Longitude(deg)": 54.072302251445,
        "Mean Anomaly(deg)": -110.98257890123594,
        "RAAN(deg)": 279.9564233134923,
        "Satellite Name": "Starlink Shell 1 1244",
        "Satellite Number": 1244,
        "Semi-Major Axis(m)": 6931778.249405717,
        "Time(s)": 840
    },
    {
        "Altitude(m)": 570081.8918444789,
        "Argument of Periapsis(deg)": 0.029629170758455132,
        "Eccentricity": 0.0,
        "Inclination(deg)": 53.0,
        "Latitude(deg)": -48.670070342169545,
        "Longitude(deg)": 54.883949165133394,
        "Mean Anomaly(deg)": -110.35574769767925,
        "RAAN(deg)": 279.9559045434148,
        "Satellite Name": "Starlink Shell 1 1244",
        "Satellite Number": 1244,
        "Semi-Major Axis(m)": 6931778.249405717,
        "Time(s)": 850
    },
    {
        "Altitude(m)": 570185.5398887595,
        "Argument of Periapsis(deg)": 0.02997774923796637,
        "Eccentricity": 0.0,
        "Inclination(deg)": 53.0,
        "Latitude(deg)": -48.928226995923985,
        "Longitude(deg)": 55.70444474065955,
        "Mean Anomaly(deg)": -109.72891649412256,
        "RAAN(deg)": 279.9553857733373,
        "Satellite Name": "Starlink Shell 1 1244",
        "Satellite Number": 1244,
        "Semi-Major Axis(m)": 6931778.249405717,
        "Time(s)": 860
    },
    {
        "Altitude(m)": 570286.3679804499,
        "Argument of Periapsis(deg)": 0.030326327717477602,
        "Eccentricity": 0.0,
        "Inclination(deg)": 53.0,
        "Latitude(deg)": -49.17986652403792,
        "Longitude(deg)": 56.533739662561764,
        "Mean Anomaly(deg)": -109.10208529056573,
        "RAAN(deg)": 279.95486700325984,
        "Satellite Name": "Starlink Shell 1 1244",
        "Satellite Number": 1244,
        "Semi-Major Axis(m)": 6931778.249405717,
        "Time(s)": 870
    },
    {
        "Altitude(m)": 570384.336076877,
        "Argument of Periapsis(deg)": 0.030674906196988847,
        "Eccentricity": 0.0,
        "Inclination(deg)": 53.0,
        "Latitude(deg)": -49.42486592071573,
        "Longitude(deg)": 57.37177105439255,
        "Mean Anomaly(deg)": -108.47525408700906,
        "RAAN(deg)": 279.9543482331824,
        "Satellite Name": "Starlink Shell 1 1244",
        "Satellite Number": 1244,
        "Semi-Major Axis(m)": 6931778.249405717,
        "Time(s)": 880
    },
    {
        "Altitude(m)": 570479.4052553838,
        "Argument of Periapsis(deg)": 0.031023484676500086,
        "Eccentricity": 0.0,
        "Inclination(deg)": 53.0,
        "Latitude(deg)": -49.66310251273836,
        "Longitude(deg)": 58.2184624971219,
        "Mean Anomaly(deg)": -107.8484228834524,
        "RAAN(deg)": 279.9538294631049,
        "Satellite Name": "Starlink Shell 1 1244",
        "Satellite Number": 1244,
        "Semi-Major Axis(m)": 6931778.249405717,
        "Time(s)": 890
    },
    {
        "Altitude(m)": 570571.5377302727,
        "Argument of Periapsis(deg)": 0.03137206315601132,
        "Eccentricity": 0.0,
        "Inclination(deg)": 53.0,
        "Latitude(deg)": -49.8944541721325,
        "Longitude(deg)": 59.07372407270417,
        "Mean Anomaly(deg)": -107.22159167989568,
        "RAAN(deg)": 279.95331069302745,
        "Satellite Name": "Starlink Shell 1 1244",
        "Satellite Number": 1244,
        "Semi-Major Axis(m)": 6931778.249405717,
        "Time(s)": 900
    },
    {
        "Altitude(m)": 570660.6968692717,
        "Argument of Periapsis(deg)": 0.03172064163552255,
        "Eccentricity": 0.0,
        "Inclination(deg)": 53.0,
        "Latitude(deg)": -50.118799539018596,
        "Longitude(deg)": 59.93745092472263,
        "Mean Anomaly(deg)": -106.59476047633888,
        "RAAN(deg)": 279.9527919229499,
        "Satellite Name": "Starlink Shell 1 1244",
        "Satellite Number": 1244,
        "Semi-Major Axis(m)": 6931778.249405717,
        "Time(s)": 910
    },
    {
        "Altitude(m)": 570746.8472094805,
        "Argument of Periapsis(deg)": 0.0320692201150338,
        "Eccentricity": 0.0,
        "Inclination(deg)": 53.0,
        "Latitude(deg)": -50.3360182541853,
        "Longitude(deg)": 60.809523366786294,
        "Mean Anomaly(deg)": -105.96792927278221,
        "RAAN(deg)": 279.95227315287246,
        "Satellite Name": "Starlink Shell 1 1244",
        "Satellite Number": 1244,
        "Semi-Major Axis(m)": 6931778.249405717,
        "Time(s)": 920
    },
    {
        "Altitude(m)": 570829.954472806,
        "Argument of Periapsis(deg)": 0.032417798594545036,
        "Eccentricity": 0.0,
        "Inclination(deg)": 53.0,
        "Latitude(deg)": -50.545991200836575,
        "Longitude(deg)": 61.68980703084388,
        "Mean Anomaly(deg)": -105.34109806922558,
        "RAAN(deg)": 279.95175438279506,
        "Satellite Name": "Starlink Shell 1 1244",
        "Satellite Number": 1244,
        "Semi-Major Axis(m)": 6931778.249405717,
        "Time(s)": 930
    },
    {
        "Altitude(m)": 570909.9855808675,
        "Argument of Periapsis(deg)": 0.03276637707405627,
        "Eccentricity": 0.0,
        "Inclination(deg)": 53.0,
        "Latitude(deg)": -50.748600754845256,
        "Longitude(deg)": 62.578151547637134,
        "Mean Anomaly(deg)": -104.71426686566882,
        "RAAN(deg)": 279.95123561271754,
        "Satellite Name": "Starlink Shell 1 1244",
        "Satellite Number": 1244,
        "Semi-Major Axis(m)": 6931778.249405717,
        "Time(s)": 940
    }
]